     2.100          NAVIGATION                              RINEX VERSION / TYPE
fic2rin                                 03/30/2009 02:28:34 PGM / RUN BY / DATE
                                                            END OF HEADER
 1 09  3 29 12  0  0.0  .000000000000D+00  .000000000000D+00  .000000000000D+00
     .110000000000D+02  .140312500000D+02  .509842665565D-08  .135876797313D+01
     .704079866409D-06  .106982607394D-02  .534579157829D-05  .514148435974D+04
     .432000000000D+05  .149011611938D-07 -.149329680496D+01 -.186264514923D-07
     .959879153380D+00  .279343750000D+03 -.615816562135D+00 -.839927843509D-08
     .395373611755D-09  .100000000000D+01  .152500000000D+04  .000000000000D+00
     .100000000000D+01  .630000000000D+02 -.116415321827D-07  .110000000000D+02
     .360060000000D+05  .400000000000D+01
 2 09  3 29 12  0  0.0  .154059380293D-03 -.568434188608D-12  .000000000000D+00
     .600000000000D+02  .828437500000D+02  .475341228442D-08 -.181453740311D+01
     .433810055256D-05  .904031889513D-02  .116731971502D-04  .515364146233D+04
     .432000000000D+05 -.137835741043D-06  .595391750491D+00 -.121071934700D-06
     .941952384075D+00  .144000000000D+03  .276082622162D+01 -.809462288782D-08
    -.539308178636D-10  .100000000000D+01  .152500000000D+04  .000000000000D+00
     .240000000000D+01  .000000000000D+00 -.172294676304D-07  .600000000000D+02
     .360060000000D+05  .400000000000D+01
 3 09  3 29 12  0  0.0  .372098293155D-03  .511590769747D-11  .000000000000D+00
     .780000000000D+02 -.410000000000D+02  .564130641163D-08 -.217607011085D+01
    -.228174030781D-05  .117334359093D-01  .718981027603D-05  .515373905754D+04
     .432000000000D+05  .191852450371D-06 -.551148312328D+00 -.279396772385D-07
     .926397414594D+00  .218500000000D+03  .894694810944D+00 -.837249160502D-08
    -.351443210449D-09  .100000000000D+01  .152500000000D+04  .000000000000D+00
     .240000000000D+01  .000000000000D+00 -.419095158577D-08  .780000000000D+02
     .360060000000D+05  .400000000000D+01
 4 09  3 29 12  0  0.0 -.309008173645D-04 -.146656020661D-10  .000000000000D+00
     .970000000000D+02  .905000000000D+02  .476698427832D-08  .103206030237D+01
     .508315861225D-05  .860432838090D-02  .117085874081D-04  .515371894073D+04
     .432000000000D+05 -.782310962677D-07  .613833548883D+00  .115483999252D-06
     .941164571968D+00  .142250000000D+03  .483003342617D+00 -.814855370568D-08
    -.241438628317D-09  .100000000000D+01  .152500000000D+04  .000000000000D+00
     .340000000000D+01  .000000000000D+00 -.605359673500D-08  .970000000000D+02
     .360060000000D+05  .400000000000D+01
 5 09  3 29 12  0  0.0 -.189170241356D-04 -.105728759081D-10  .000000000000D+00
     .112000000000D+03  .255000000000D+02  .532986486741D-08  .677912326089D+00
     .116415321827D-05  .947207165882D-02  .599958002567D-05  .515358801270D+04
     .432000000000D+05 -.108033418655D-06 -.158213532729D+01  .651925802231D-07
     .945148661121D+00  .254843750000D+03  .129690681150D+01 -.864178853661D-08
     .459662003910D-09  .100000000000D+01  .152500000000D+04  .000000000000D+00
     .965000000000D+01  .630000000000D+02 -.419095158577D-08  .112000000000D+03
     .360060000000D+05  .400000000000D+01
 7 09  3 29 12  0  0.0  .211060978472D-04 -.568434188608D-12  .000000000000D+00
     .290000000000D+02 -.574375000000D+02  .402409619119D-08  .269171055602D+01
    -.285729765892D-05  .236963888165D-02  .115670263767D-04  .515368188858D+04
     .432000000000D+05 -.353902578354D-07 -.253353843719D+01  .484287738800D-07
     .966753436155D+00  .157281250000D+03  .290391056557D+01 -.771139263903D-08
     .447161483213D-09  .100000000000D+01  .152500000000D+04  .000000000000D+00
     .240000000000D+01  .000000000000D+00 -.107102096081D-07  .290000000000D+02
     .360060000000D+05  .400000000000D+01
 8 09  3 29 12  0  0.0 -.196168664843D-03 -.136424205266D-11  .000000000000D+00
     .450000000000D+02 -.421562500000D+02  .360407869577D-08  .199448596603D+01
    -.207684934139D-05  .104899089783D-01  .115800648928D-04  .515366925621D+04
     .432000000000D+05  .372529029846D-08 -.247442191614D+01  .180676579475D-06
     .987907287172D+00  .170281250000D+03  .298331543141D+01 -.745745349001D-08
     .351086052715D-09  .100000000000D+01  .152500000000D+04  .000000000000D+00
     .240000000000D+01  .000000000000D+00 -.465661287308D-08  .450000000000D+02
     .360060000000D+05  .400000000000D+01
 9 09  3 29 12  0  0.0  .479384325445D-04  .193267624127D-11  .000000000000D+00
     .420000000000D+02 -.460625000000D+02  .373837000383D-08  .175006681548D+01
    -.257603824139D-05  .202867026674D-01  .112242996693D-04  .515365060806D+04
     .432000000000D+05  .141561031342D-06 -.256796594081D+01 -.515952706337D-06
     .975719776634D+00  .171812500000D+03  .146553889993D+01 -.755924344426D-08
     .458590530708D-09  .100000000000D+01  .152500000000D+04  .000000000000D+00
     .240000000000D+01  .000000000000D+00 -.558793544769D-08  .420000000000D+02
     .360060000000D+05  .400000000000D+01
10 09  3 29 12  0  0.0 -.134571455419D-04 -.568434188608D-12  .000000000000D+00
     .370000000000D+02  .714375000000D+02  .474269755239D-08 -.959724688248D+00
     .377185642719D-05  .865365902428D-02  .198557972908D-05  .515357043457D+04
     .432000000000D+05  .188127160072D-06  .167980098174D+01  .745058059692D-07
     .958803537010D+00  .339187500000D+03  .615928842560D+00 -.849178228825D-08
     .514307137242D-10  .100000000000D+01  .152500000000D+04  .000000000000D+00
     .340000000000D+01  .000000000000D+00 -.279396772385D-08  .370000000000D+02
     .360060000000D+05  .400000000000D+01
11 09  3 29 12  0  0.0  .306870788336D-05 -.125055521494D-11  .000000000000D+00
     .520000000000D+02  .647500000000D+02  .590381734626D-08  .253498273525D+01
     .319816172123D-05  .924980745185D-02  .124312937260D-04  .515368285751D+04
     .432000000000D+05 -.894069671631D-07  .398320884235D+00 -.188127160072D-06
     .890139093866D+00  .990937500000D+02  .693003553465D+00 -.839999275056D-08
    -.316441752498D-09  .100000000000D+01  .152500000000D+04  .000000000000D+00
     .240000000000D+01  .000000000000D+00 -.121071934700D-07  .520000000000D+02
     .360060000000D+05  .400000000000D+01
12 09  3 29 12  0  0.0 -.300697982311D-03  .454747350886D-11  .000000000000D+00
     .110000000000D+02  .186875000000D+02  .484377319117D-08  .281275464641D+01
     .823289155960D-06  .334229622968D-02  .546872615814D-05  .515368346786D+04
     .432000000000D+05  .353902578354D-07 -.148169785416D+01  .152736902237D-06
     .966013084037D+00  .272750000000D+03 -.773047581380D+00 -.820177020808D-08
     .452876006961D-09  .100000000000D+01  .152500000000D+04  .000000000000D+00
     .240000000000D+01  .000000000000D+00 -.121071934700D-07  .110000000000D+02
     .360060000000D+05  .400000000000D+01
13 09  3 29 12  0  0.0  .292968936265D-03  .113686837722D-11  .000000000000D+00
     .350000000000D+02 -.112562500000D+03  .374015579250D-08 -.115715452827D+01
    -.577978789806D-05  .395451451186D-02  .559352338314D-05  .515373421288D+04
     .432000000000D+05  .372529029846D-08  .275873027109D+01  .111758708954D-06
     .995265825091D+00  .290406250000D+03  .152086913883D+01 -.793604485384D-08
    -.343942898031D-09  .100000000000D+01  .152500000000D+04  .000000000000D+00
     .240000000000D+01  .000000000000D+00 -.111758708954D-07  .350000000000D+02
     .360060000000D+05  .400000000000D+01
14 09  3 29 12  0  0.0 -.133865512908D-03  .568434188608D-11  .000000000000D+00
     .550000000000D+02 -.109531250000D+03  .384337437768D-08 -.145981842796D+01
    -.571459531784D-05  .437016075011D-02  .619143247604D-05  .515358826447D+04
     .432000000000D+05  .119209289551D-06  .273960165753D+01  .316649675369D-07
     .988797426010D+00  .275593750000D+03 -.211829840505D+01 -.789032866386D-08
    -.394302138552D-09  .100000000000D+01  .152500000000D+04  .000000000000D+00
     .240000000000D+01  .000000000000D+00 -.931322574615D-08  .550000000000D+02
     .360060000000D+05  .400000000000D+01
15 09  3 29 12  0  0.0 -.274828169495D-03 -.454747350886D-11  .000000000000D+00
     .600000000000D+01 -.106125000000D+03  .447518640948D-08 -.114754498221D+01
    -.555068254471D-05  .143736694008D-02  .504590570927D-05  .515360117340D+04
     .432000000000D+05 -.782310962677D-07  .268900979859D+01  .931322574615D-08
     .956836947940D+00  .282156250000D+03 -.567759649103D+00 -.823320008869D-08
    -.286797660559D-09  .100000000000D+01  .152500000000D+04  .000000000000D+00
     .240000000000D+01  .000000000000D+00 -.977888703346D-08  .600000000000D+01
     .360060000000D+05  .400000000000D+01
16 09  3 29 12  0  0.0  .637872144580D-04 -.306954461848D-11  .000000000000D+00
     .330000000000D+02  .743750000000D+01  .482984403953D-08  .298312188003D+00
     .445172190666D-06  .525867659599D-02  .550225377083D-05  .515377859879D+04
     .432000000000D+05  .558793544769D-07 -.146482970504D+01 -.465661287308D-07
     .967505314606D+00  .275062500000D+03 -.376552231655D+00 -.822248535666D-08
     .416088760338D-09  .100000000000D+01  .152500000000D+04  .000000000000D+00
     .240000000000D+01  .000000000000D+00 -.977888703346D-08  .330000000000D+02
     .360060000000D+05  .400000000000D+01
18 09  3 29 12  0  0.0 -.704205594957D-04  .341060513165D-11  .000000000000D+00
     .610000000000D+02  .668750000000D+02  .521986028528D-08  .441081809994D+00
     .362284481525D-05  .100572688971D-01  .130012631416D-05  .515376387596D+04
     .432000000000D+05 -.204890966415D-07  .168613694431D+01  .197440385818D-06
     .942858617937D+00  .344062500000D+03 -.243577546796D+01 -.883108213573D-08
    -.314298806093D-10  .100000000000D+01  .152500000000D+04  .000000000000D+00
     .240000000000D+01  .000000000000D+00 -.107102096081D-07  .610000000000D+02
     .360060000000D+05  .400000000000D+01
